{
  "links" : {
    "next" : "https://api.nasa.gov/neo/rest/v1/feed?start_date=2003-11-16&end_date=2003-11-16&detailed=true&api_key=t0TVs3DtDT2H8Oy2Zy8m2eVrNsAVKAexjcZXUckd",
    "prev" : "https://api.nasa.gov/neo/rest/v1/feed?start_date=2003-11-14&end_date=2003-11-14&detailed=true&api_key=t0TVs3DtDT2H8Oy2Zy8m2eVrNsAVKAexjcZXUckd",
    "self" : "https://api.nasa.gov/neo/rest/v1/feed?start_date=2003-11-15&end_date=2003-11-15&detailed=true&api_key=t0TVs3DtDT2H8Oy2Zy8m2eVrNsAVKAexjcZXUckd"
  },
  "element_count" : 7,
  "near_earth_objects" : {
    "2003-11-15" : [ {
      "links" : {
        "self" : "https://api.nasa.gov/neo/rest/v1/neo/3440396?api_key=t0TVs3DtDT2H8Oy2Zy8m2eVrNsAVKAexjcZXUckd"
      },
      "neo_reference_id" : "3440396",
      "name" : "(2008 WT62)",
      "nasa_jpl_url" : "http://ssd.jpl.nasa.gov/sbdb.cgi?sstr=3440396",
      "absolute_magnitude_h" : 23.1,
      "estimated_diameter" : {
        "kilometers" : {
          "estimated_diameter_min" : 0.063760979,
          "estimated_diameter_max" : 0.1425738833
        },
        "meters" : {
          "estimated_diameter_min" : 63.7609789875,
          "estimated_diameter_max" : 142.5738833281
        },
        "miles" : {
          "estimated_diameter_min" : 0.0396192233,
          "estimated_diameter_max" : 0.0885912765
        },
        "feet" : {
          "estimated_diameter_min" : 209.1895703015,
          "estimated_diameter_max" : 467.7620993781
        }
      },
      "is_potentially_hazardous_asteroid" : false,
      "close_approach_data" : [ {
        "close_approach_date" : "2003-11-15",
        "epoch_date_close_approach" : 1068883200000,
        "relative_velocity" : {
          "kilometers_per_second" : "11.1229121975",
          "kilometers_per_hour" : "40042.4839109978",
          "miles_per_hour" : "24880.8422945864"
        },
        "miss_distance" : {
          "astronomical" : "0.1934614212",
          "lunar" : "75.2564926147",
          "kilometers" : "28941416",
          "miles" : "17983362"
        },
        "orbiting_body" : "Earth"
      } ],
      "orbital_data" : {
        "orbit_id" : "11",
        "orbit_determination_date" : "2017-04-06 09:02:03",
        "orbit_uncertainty" : "2",
        "minimum_orbit_intersection" : ".0851768",
        "jupiter_tisserand_invariant" : "6.618",
        "epoch_osculation" : "2458000.5",
        "eccentricity" : ".3536920901446263",
        "semi_major_axis" : ".8841442544887468",
        "inclination" : "18.20619509562732",
        "ascending_node_longitude" : "58.01658082842135",
        "orbital_period" : "303.6568765135826",
        "perihelion_distance" : ".5714294251292595",
        "perihelion_argument" : "148.3080027667859",
        "aphelion_distance" : "1.196859083848234",
        "perihelion_time" : "2457934.830301103018",
        "mean_anomaly" : "77.85462287021886",
        "mean_motion" : "1.185548649954242",
        "equinox" : "J2000"
      }
    }, {
      "links" : {
        "self" : "https://api.nasa.gov/neo/rest/v1/neo/3471974?api_key=t0TVs3DtDT2H8Oy2Zy8m2eVrNsAVKAexjcZXUckd"
      },
      "neo_reference_id" : "3471974",
      "name" : "(2009 UQ5)",
      "nasa_jpl_url" : "http://ssd.jpl.nasa.gov/sbdb.cgi?sstr=3471974",
      "absolute_magnitude_h" : 24.2,
      "estimated_diameter" : {
        "kilometers" : {
          "estimated_diameter_min" : 0.0384197891,
          "estimated_diameter_max" : 0.0859092601
        },
        "meters" : {
          "estimated_diameter_min" : 38.4197891064,
          "estimated_diameter_max" : 85.9092601232
        },
        "miles" : {
          "estimated_diameter_min" : 0.0238729428,
          "estimated_diameter_max" : 0.0533815229
        },
        "feet" : {
          "estimated_diameter_min" : 126.0491808919,
          "estimated_diameter_max" : 281.8545369825
        }
      },
      "is_potentially_hazardous_asteroid" : false,
      "close_approach_data" : [ {
        "close_approach_date" : "2003-11-15",
        "epoch_date_close_approach" : 1068883200000,
        "relative_velocity" : {
          "kilometers_per_second" : "6.1878352424",
          "kilometers_per_hour" : "22276.2068724744",
          "miles_per_hour" : "13841.5686536217"
        },
        "miss_distance" : {
          "astronomical" : "0.1686426115",
          "lunar" : "65.6019744873",
          "kilometers" : "25228576",
          "miles" : "15676310"
        },
        "orbiting_body" : "Earth"
      } ],
      "orbital_data" : {
        "orbit_id" : "19",
        "orbit_determination_date" : "2017-04-06 08:59:28",
        "orbit_uncertainty" : "0",
        "minimum_orbit_intersection" : ".111872",
        "jupiter_tisserand_invariant" : "3.622",
        "epoch_osculation" : "2458000.5",
        "eccentricity" : ".4686443991785709",
        "semi_major_axis" : "2.074027590709356",
        "inclination" : "3.361404563534352",
        "ascending_node_longitude" : "217.3681448916603",
        "orbital_period" : "1090.988621467917",
        "perihelion_distance" : "1.102046176581591",
        "perihelion_argument" : "188.7818977434327",
        "aphelion_distance" : "3.046009004837121",
        "perihelion_time" : "2458420.061675954394",
        "mean_anomaly" : "221.5547400115359",
        "mean_motion" : ".3299759437597276",
        "equinox" : "J2000"
      }
    }, {
      "links" : {
        "self" : "https://api.nasa.gov/neo/rest/v1/neo/3656792?api_key=t0TVs3DtDT2H8Oy2Zy8m2eVrNsAVKAexjcZXUckd"
      },
      "neo_reference_id" : "3656792",
      "name" : "(2014 BA3)",
      "nasa_jpl_url" : "http://ssd.jpl.nasa.gov/sbdb.cgi?sstr=3656792",
      "absolute_magnitude_h" : 28.2,
      "estimated_diameter" : {
        "kilometers" : {
          "estimated_diameter_min" : 0.0060891262,
          "estimated_diameter_max" : 0.0136157002
        },
        "meters" : {
          "estimated_diameter_min" : 6.0891262211,
          "estimated_diameter_max" : 13.6157001539
        },
        "miles" : {
          "estimated_diameter_min" : 0.0037836064,
          "estimated_diameter_max" : 0.0084604012
        },
        "feet" : {
          "estimated_diameter_min" : 19.9774488711,
          "estimated_diameter_max" : 44.6709336928
        }
      },
      "is_potentially_hazardous_asteroid" : false,
      "close_approach_data" : [ {
        "close_approach_date" : "2003-11-15",
        "epoch_date_close_approach" : 1068883200000,
        "relative_velocity" : {
          "kilometers_per_second" : "5.5364476684",
          "kilometers_per_hour" : "19931.2116063724",
          "miles_per_hour" : "12384.4797895263"
        },
        "miss_distance" : {
          "astronomical" : "0.1145801236",
          "lunar" : "44.5716667175",
          "kilometers" : "17140942",
          "miles" : "10650888"
        },
        "orbiting_body" : "Earth"
      } ],
      "orbital_data" : {
        "orbit_id" : "17",
        "orbit_determination_date" : "2017-04-06 08:42:49",
        "orbit_uncertainty" : "5",
        "minimum_orbit_intersection" : ".0109061",
        "jupiter_tisserand_invariant" : "6.386",
        "epoch_osculation" : "2458000.5",
        "eccentricity" : ".07461423888334411",
        "semi_major_axis" : ".9394413851858668",
        "inclination" : "2.259005425127867",
        "ascending_node_longitude" : "299.935821186224",
        "orbital_period" : "332.5852305972518",
        "perihelion_distance" : ".8693456812547089",
        "perihelion_argument" : "332.6486532505805",
        "aphelion_distance" : "1.009537089117025",
        "perihelion_time" : "2458145.438870746897",
        "mean_anomaly" : "203.1139188737202",
        "mean_motion" : "1.082429304973997",
        "equinox" : "J2000"
      }
    } ]
  }
}